STARLINK-30912          
1 58422U 23180W   25300.07846087  .00000555  00000+0  29692-4 0  9991
2 58422  43.0062 304.8664 0001650 264.1391  95.9273 15.27574495108864
STARLINK-30900          
1 58423U 23180X   25300.32559188  .00002924  00000+0  23137-3 0  9992
2 58423  43.0026  60.6401 0001648 273.1263  86.9391 15.02548721107413
STARLINK-30908          
1 58424U 23180Y   25300.04168093 -.00001303  00000+0 -81426-4 0  9991
2 58424  43.0022  61.0539 0000812 281.5750  78.5001 15.02532723107491
CHUANGXIN 20A (CX-20A)  
1 58425U 23181A   25300.25572237 -.00000097  00000+0  55094-4 0  9995
2 58425  49.9574 100.8639 0012871 277.8453  82.0962 13.41468826 94481
CHUANGXIN 20B (CX-20B)  
1 58426U 23181B   25300.26239157 -.00000061  00000+0  11928-3 0  9996
2 58426  49.9572 100.8892 0010882 281.1214  78.8439 13.41460431 94479
CHUANGXIN 20C (CX-20C)  
1 58427U 23181C   25300.25905369 -.00000067  00000+0  10951-3 0  9992
2 58427  49.9580 100.8729 0010847 268.8055  91.1580 13.41466054 94487
COSMOS 2572             
1 58435U 23182A   25297.05881124 -.00000584  18793-5  34035-7 0  9998
2 58435  96.6944  39.7688 0013535 165.0808 195.0869 15.90081054110936
STARLINK-30869          
1 58437U 23183A   25300.00682174  .00001181  00000+0  10248-3 0  9990
2 58437  43.0040  49.8233 0001446 269.8124  90.2553 15.02534885106604
STARLINK-30969          
1 58438U 23183B   25300.01014740 -.00000797  00000+0 -43905-4 0  9991
2 58438  43.0040  49.8480 0001199 270.0794  89.9911 15.02543435106605
STARLINK-30951          
1 58439U 23183C   25300.00349178 -.00003433  00000+0 -23923-3 0  9994
2 58439  43.0027  49.7948 0001545 265.5748  94.4917 15.02528504106609
STARLINK-30950          
1 58440U 23183D   25300.17385297  .00001736  00000+0  72602-4 0  9997
2 58440  43.0040 239.1565 0001209 277.3620  82.7094 15.27574233108619
STARLINK-30942          
1 58441U 23183E   25299.78740527  .00001479  00000+0  12450-3 0  9991
2 58441  43.0027  50.7590 0001196 259.9797 100.0911 15.02538242106574
STARLINK-30959          
1 58442U 23183F   25299.78074814  .00000046  00000+0  18444-4 0  9990
2 58442  43.0029  50.7095 0001190 267.8531  92.2175 15.02535048106570
STARLINK-30971          
1 58443U 23183G   25299.99017025 -.00002440  00000+0 -16559-3 0  9991
2 58443  43.0040  49.6930 0001467 274.1673  85.9002 15.02533653106606
STARLINK-30963          
1 58444U 23183H   25300.30924338 -.00001072  00000+0 -64234-4 0  9998
2 58444  43.0026  47.7897 0001247 287.8263  72.2444 15.02549778106653
STARLINK-30961          
1 58445U 23183J   25300.03999709 -.00000095  00000+0  80193-5 0  9999
2 58445  43.0033  49.2090 0001233 270.2832  89.7869 15.02536936106619
STARLINK-30975          
1 58446U 23183K   25300.02123994  .00004040  00000+0  31390-3 0  9990
2 58446  43.0082  49.9161 0002778 270.5222  89.5302 15.02541692106627
STARLINK-30976          
1 58447U 23183L   25300.03001225  .00000782  00000+0  72944-4 0  9994
2 58447  43.0045  49.1663 0001448 270.4925  89.5751 15.02539876106616
STARLINK-30926          
1 58448U 23183M   25300.29258838  .00000150  00000+0  26173-4 0  9999
2 58448  43.0028  47.6252 0001270 274.6254  85.4443 15.02537928106652
STARLINK-30943          
1 58449U 23183N   25300.29322084 -.00000114  00000+0  66374-5 0  9994
2 58449  43.0026  22.4890 0001129 278.4543  81.6171 15.02535062106941
STARLINK-30946          
1 58450U 23183P   25300.01347136  .00000164  00000+0  27224-4 0  9995
2 58450  43.0045  49.8723 0001224 275.9036  84.1666 15.02536310106604
STARLINK-30944          
1 58451U 23183Q   25300.03667300 -.00000375  00000+0 -12699-4 0  9992
2 58451  43.0029  49.1874 0001085 271.2545  88.8173 15.02531835106584
STARLINK-30928          
1 58452U 23183R   25300.03333708  .00000782  00000+0  72936-4 0  9995
2 58452  43.0076  49.1635 0002375 275.6380  84.4191 15.02552323106611
STARLINK-30957          
1 58453U 23183S   25300.02012774 -.00003032  00000+0 -20940-3 0  9992
2 58453  43.0030  49.9167 0001227 273.1289  86.9413 15.02550455106603
STARLINK-30966          
1 58454U 23183T   25300.01680891  .00001494  00000+0  12563-3 0  9993
2 58454  43.0028  49.8920 0001409 275.5665  84.5017 15.02534595106604
STARLINK-30935          
1 58455U 23183U   25299.99682748  .00000662  00000+0  64093-4 0  9993
2 58455  43.0030  49.7418 0001455 270.5587  89.5089 15.02535820106604
STARLINK-30960          
1 58456U 23183V   25300.12957588  .00007718  00000+0  28829-3 0  9994
2 58456  43.0028 355.4539 0000842 274.1904  85.8851 15.27739815107250
STARLINK-30958          
1 58457U 23183W   25299.71538237 -.00001239  00000+0 -76620-4 0  9990
2 58457  43.0027  51.0760 0001428 282.4694  77.5988 15.02536774106568
STARLINK-30962          
1 58458U 23183X   25300.02334666  .00000949  00000+0  85321-4 0  9991
2 58458  43.0043  49.0878 0001437 268.3077  91.7600 15.02540185106618
STARLINK-30977          
1 58459U 23183Y   25299.99349673 -.00004951  00000+0 -35149-3 0  9990
2 58459  43.0028  49.7180 0001223 285.4047  74.6660 15.02557030106607
GNOMES-4                
1 58462U 23185A   25300.32688785  .00005910  00000+0  49599-3 0  9994
2 58462  97.5292   0.6541 0011426   7.7845 352.3553 14.98662622104380
KORSAT 7                
1 58463U 23185B   25300.32073325  .00003133  00000+0  24829-3 0  9997
2 58463  97.6341   3.8459 0026142  33.5670 326.7204 15.01022186104359
KOYOH                   
1 58464U 23185C   25300.32425336  .00007691  00000+0  41985-3 0  9996
2 58464  97.5605   8.7766 0008224  43.3275 316.8602 15.14591086104837
BANE                    
1 58465U 23185D   25300.28110149  .00041226  00000+0  74660-3 0  9993
2 58465  97.3655  13.4320 0003932 308.7732  51.3167 15.49529959106328
UHETSAT                 
1 58466U 23185E   25300.27140076  .00008725  00000+0  32808-3 0  9990
2 58466  97.3795   5.0354 0015384  61.7850 298.4941 15.27277663105690
LILIUM-1                
1 58467U 23185F   25300.32627584  .00043217  00000+0  90041-3 0  9999
2 58467  97.3598  10.5566 0006519 317.0732  43.0008 15.45443745106150
SPIRIT                  
1 58468U 23185G   25300.29762240  .00039575  00000+0  79553-3 0  9992
2 58468  97.3605  11.7829 0006246 314.0711  46.0023 15.46513337106231
ION SCV-015             
1 58469U 23185H   25300.29530953  .00008848  00000+0  31597-3 0  9992
2 58469  97.5932  18.8237 0009741 196.1458 163.9473 15.29053584105442
ROBUSTA-1E (ENSO)       
1 58470U 23185J   25298.09129247  .00524137  11009-3  15607-2 0  9990
2 58470  97.3514  19.7505 0006849 270.3016  89.7473 15.92395026106566
STARLINK-30947          
1 58473U 23186A   25300.10788394  .00001338  00000+0  11406-3 0  9996
2 58473  43.0039  73.6157 0001530 271.4866  88.5801 15.02540091105755
STARLINK-30995          
1 58474U 23186B   25300.26171799  .00023552  00000+0  83474-3 0  9995
2 58474  43.0043 282.1563 0001277 231.4535 128.6203 15.28658692107676
STARLINK-30941          
1 58475U 23186C   25300.10122330  .00000887  00000+0  80727-4 0  9991
2 58475  43.0037  73.5632 0001377 268.1256  91.9428 15.02539463105751
STARLINK-30980          
1 58476U 23186D   25299.76550823  .00001344  00000+0  11452-3 0  9990
2 58476  43.0034  75.3422 0001304 270.8918  89.1775 15.02535949105705
STARLINK-30965          
1 58477U 23186E   25299.68486100 -.00001653  00000+0 -10730-3 0  9991
2 58477  43.0046  62.5934 0001614 262.2702  97.7957 15.02535582105840
STARLINK-30990          
1 58478U 23186F   25299.76217854  .00003795  00000+0  29584-3 0  9993
2 58478  43.0027  75.3176 0001437 269.6473  90.4205 15.02536251105748
STARLINK-30984          
1 58480U 23186H   25299.78203838  .00001307  00000+0  11184-3 0  9999
2 58480  43.0032  74.6035 0001172 270.8876  89.1832 15.02531676105714
STARLINK-30956          
1 58481U 23186J   25299.99787066 -.00000748  00000+0 -40326-4 0  9994
2 58481  43.0018  49.2253 0000880 263.4060  96.6682 15.02537602106023
STARLINK-30997          
1 58482U 23186K   25300.06459280  .00007129  00000+0  54217-3 0  9991
2 58482  43.0028  73.2567 0001404 277.4261  82.6421 15.02540727105758
STARLINK-30994          
1 58483U 23186L   25300.29790773  .00002622  00000+0  10480-3 0  9999
2 58483  43.0017 293.4936 0001099 298.0292  62.0448 15.27573412107405
STARLINK-30991          
1 58484U 23186M   25299.77870965  .00000397  00000+0  44487-4 0  9994
2 58484  43.0040  74.5763 0001429 268.7666  91.3012 15.02536204105708
STARLINK-30979          
1 58485U 23186N   25300.08790759 -.00000625  00000+0 -31179-4 0  9994
2 58485  43.0027  73.4628 0001258 270.0846  89.9852 15.02541496105746
STARLINK-31005          
1 58486U 23186P   25300.08457889 -.00013916  00000+0 -10153-2 0  9993
2 58486  43.0034  73.4359 0001307 287.6395  72.4305 15.02600620105749
STARLINK-30987          
1 58487U 23186Q   25300.08126855 -.00001987  00000+0 -13217-3 0  9990
2 58487  43.0031  73.4102 0001264 275.6925  84.3773 15.02513820105747
STARLINK-31000          
1 58488U 23186R   25299.81200600  .00002628  00000+0  20955-3 0  9998
2 58488  43.0026  74.8294 0001343 272.9251  87.1438 15.02539670105705
STARLINK-30993          
1 58489U 23186S   25299.74220077 -.00007529  00000+0 -54310-3 0  9990
2 58489  43.0027  75.1667 0001276 272.7797  87.2899 15.02522643105695
STARLINK-30978          
1 58490U 23186T   25300.07126944 -.00000380  00000+0 -13088-4 0  9995
2 58490  43.0038  73.3351 0001717 270.2712  89.7934 15.02525970105748
STARLINK-30953          
1 58491U 23186U   25300.06239272 -.00000051  00000+0  76772-5 0  9998
2 58491  43.0017 302.1552 0000666 254.3122 105.7657 15.27578235107452
STARLINK-30986          
1 58492U 23186V   25300.06129358 -.00000785  00000+0 -43008-4 0  9992
2 58492  43.0067  73.2594 0001955 267.7301  92.3317 15.02521985105746
STARLINK-30985          
1 58493U 23186W   25300.05793708  .00001239  00000+0  10679-3 0  9998
2 58493  43.0031  73.2360 0001699 273.1307  86.9341 15.02541089105744
